[{"OBJECT_NAME":"STARLINK-36070","OBJECT_ID":"2025-281S","EPOCH":"2026-03-09T02:35:17.409696","MEAN_MOTION":15.27576757,"ECCENTRICITY":0.00018055,"INCLINATION":43.0021,"RA_OF_ASC_NODE":347.0065,"ARG_OF_PERICENTER":253.1497,"MEAN_ANOMALY":106.9157,"EPHEMERIS_TYPE":0,"CLASSIFICATION_TYPE":"U","NORAD_CAT_ID":66864,"ELEMENT_SET_NO":999,"REV_AT_EPOCH":1609,"BSTAR":0.0011125818,"MEAN_MOTION_DOT":0.00030478,"MEAN_MOTION_DDOT":0},{"OBJECT_NAME":"TITAN 3C TRANSTAGE DEB","OBJECT_ID":"1965-082PT","EPOCH":"2026-03-09T13:23:41.116128","MEAN_MOTION":15.28908269,"ECCENTRICITY":0.00104371,"INCLINATION":32.0266,"RA_OF_ASC_NODE":255.1391,"ARG_OF_PERICENTER":172.8339,"MEAN_ANOMALY":187.2474,"EPHEMERIS_TYPE":0,"CLASSIFICATION_TYPE":"U","NORAD_CAT_ID":3462,"ELEMENT_SET_NO":999,"REV_AT_EPOCH":24824,"BSTAR":0.0004444037,"MEAN_MOTION_DOT":0.00012939,"MEAN_MOTION_DDOT":0}]
